2024-170A               
1 61195U 24170A   24274.71839441  .00001143  00000+0  67416-3 0  9997
2 61195  44.8607  52.5676 0006632 330.6120 122.7964 14.13366481  1443
2024-170B               
1 61196U 24170B   24274.69961187  .00000797  00000+0  49224-3 0  9999
2 61196  44.8587  52.6540 0007041 324.0950  35.9413 14.13228165  1445
2024-170C               
1 61197U 24170C   24274.70173442  .00000766  00000+0  47635-3 0  9991
2 61197  44.8625  52.6722 0007022 319.4291  40.6021 14.13184279  1441
2024-170D               
1 61198U 24170D   24274.70256910  .00000813  00000+0  50259-3 0  9993
2 61198  44.8613  52.6750 0007193 318.8329  41.1964 14.13048707  1463
KZ-1A R/B               
1 61199U 24170E   24274.42783916  .00205039  14463-4  19240-2 0  9998
2 61199  44.7447  47.9178 0505177 167.0158 194.4283 14.83821336  1491
STARLINK-11209 [DTC]    
1 61200U 24171A   24274.58334491 -.00947583  00000+0 -51495-2 0  9993
2 61200  53.1634 246.7769 0000783  80.9775  99.9348 15.81698324  2818
STARLINK-11257 [DTC]    
1 61201U 24171B   24274.58334491 -.00946219  00000+0 -48675-2 0  9995
2 61201  53.1633 246.7441 0001047 114.5135  82.3364 15.82853931  2804
STARLINK-11309 [DTC]    
1 61202U 24171C   24274.58334491 -.00906093  00000+0 -44006-2 0  9996
2 61202  53.1634 246.7153 0001069 122.5906  88.0647 15.83957460  2805
STARLINK-11292 [DTC]    
1 61203U 24171D   24274.58334491 -.00672779  00000+0 -30820-2 0  9997
2 61203  53.1634 246.6902 0000761 111.3132 111.5773 15.84610858  2813
STARLINK-11302 [DTC]    
1 61204U 24171E   24274.58334491 -.00645114  00000+0 -28544-2 0  9991
2 61204  53.1632 246.6658 0000675 101.8901 132.6355 15.85262972  2802
STARLINK-11277 [DTC]    
1 61205U 24171F   24274.58334491 -.00588949  00000+0 -24488-2 0  9997
2 61205  53.1633 246.6260 0000927 122.0390 131.7346 15.86402216  2819
STARLINK-11279 [DTC]    
1 61206U 24171G   24274.58334491 -.00569757  00000+0 -23077-2 0  9997
2 61206  53.1633 246.6069 0000830 119.3383 143.7517 15.86890346  2819
STARLINK-11091 [DTC]    
1 61207U 24171H   24274.58334491 -.00611889  00000+0 -26187-2 0  9997
2 61207  53.1633 246.6461 0000793 116.9182 127.2492 15.85867580  2760
STARLINK-11291 [DTC]    
1 61208U 24171J   24274.58334491 -.00551663  00000+0 -21805-2 0  9993
2 61208  53.1633 246.5889 0000658 110.6610 161.0477 15.87342881  2809
STARLINK-11304 [DTC]    
1 61209U 24171K   24274.58334491 -.00535937  00000+0 -20707-2 0  9990
2 61209  53.1632 246.5724 0000560  90.5923 189.1507 15.87764593  2805
STARLINK-11307 [DTC]    
1 61210U 24171L   24274.58334491 -.00516526  00000+0 -19527-2 0  9993
2 61210  53.1631 246.5560 0000572 114.6730 172.8542 15.88156221  2814
STARLINK-11298 [DTC]    
1 61211U 24171M   24274.58334491 -.00502927  00000+0 -18633-2 0  9991
2 61211  53.1632 246.5403 0000565 114.3944 180.6960 15.88527660  2807
STARLINK-11310 [DTC]    
1 61212U 24171N   24274.58334491 -.00487247  00000+0 -17713-2 0  9997
2 61212  53.1630 246.5273 0000564 116.2850 185.1083 15.88868702  2819
STARLINK-32386          
1 61213U 24171P   24274.58334491 -.01096851  00000+0 -67623-2 0  9991
2 61213  53.1621 246.7953 0000906  79.5624  91.7141 15.78933040  2811
STARLINK-32392          
1 61214U 24171Q   24274.58334491 -.01141989  00000+0 -71271-2 0  9999
2 61214  53.1622 246.7827 0000899 100.1931  77.1407 15.78767982  2819
STARLINK-32436          
1 61215U 24171R   24274.58334491 -.01120240  00000+0 -69511-2 0  9991
2 61215  53.1621 246.7889 0000985 107.0101  67.3974 15.78844251  2813
STARLINK-32425          
1 61216U 24171S   24274.58334491 -.01160816  00000+0 -72791-2 0  9999
2 61216  53.1623 246.7773 0000719  86.1219  93.9125 15.78708601  2811
STARLINK-32342          
1 61217U 24171T   24274.58334491 -.01185172  00000+0 -74847-2 0  9996
2 61217  53.1622 246.7710 0000848  90.1619  92.9356 15.78607893  2810
STARLINK-32423          
1 61218U 24171U   24274.58334491 -.01197486  00000+0 -75826-2 0  9996
2 61218  53.1623 246.7662 0000845 105.2477  80.1786 15.78578037  2818
STARLINK-32248          
1 61219U 24171V   24274.58334491 -.01204081  00000+0 -76249-2 0  9997
2 61219  53.1625 246.7625 0000673  89.8673  97.4600 15.78593469  2816
2024-172A               
1 61220U 24172A   24274.54084908  .00011492  00000+0  16373-2 0  9992
2 61220  98.0185   0.9563 0000806  50.0161 310.1120 14.76954918  1412
2024-172B               
1 61221U 24172B   24274.54039927  .00011860  00000+0  16867-2 0  9991
2 61221  98.0185   0.9572 0000647  18.8441 341.2793 14.77025305  1410
2024-172C               
1 61222U 24172C   24274.53983238  .00011826  00000+0  16785-2 0  9995
2 61222  98.0184   0.9581 0000593 143.8479 216.2771 14.77112174  1418
2024-172D               
1 61223U 24172D   24274.53800870  .00012128  00000+0  17096-2 0  9998
2 61223  98.0184   0.9604 0001294 269.2405  90.8656 14.77395435  1417
2024-172E               
1 61224U 24172E   24274.53705761  .00011953  00000+0  16794-2 0  9991
2 61224  98.0184   0.9616 0001843 235.0227 125.0811 14.77542243  1408
2024-172F               
1 61225U 24172F   24274.35403501  .05048798  23683-5  15834-2 0  9993
2 61225  97.9914   2.2249 0166566 197.1060 231.9327 16.01166050  1420
2024-172G               
1 61226U 24172G   24274.59287336  .00012021  00000+0  12181-2 0  9995
2 61226  98.0152   1.2006 0056741  18.9707 341.3606 14.89863946  1381
2024-173A               
1 61227U 24173A   24274.60714072  .00037518  00000+0  15313-2 0  9999
2 61227  97.4077 347.3503 0010386 245.8174 250.4792 15.24264828   975
2024-173B               
1 61228U 24173B   24274.60969413  .00042660  00000+0  17260-2 0  9998
2 61228  97.4037 347.3523 0011710 250.8846 264.4607 15.24513354   979
2024-173C               
1 61229U 24173C   24274.60634354  .00034537  00000+0  14031-2 0  9999
2 61229  97.4055 347.3499 0011038 250.6185 245.6966 15.24433352   977
2024-173D               
1 61230U 24173D   24274.60611936  .00037429  00000+0  15165-2 0  9994
2 61230  97.4045 347.3501 0011047 251.6334 244.6947 15.24505228   979
2024-173E               
1 61231U 24173E   24274.60647652  .00014758  00000+0  60560-3 0  9999
2 61231  97.3980 347.3443 0011257 255.7508 240.4489 15.24274462   915
2024-173F               
1 61232U 24173F   24274.60576060  .00037361  00000+0  15101-2 0  9999
2 61232  97.4062 347.3510 0011137 253.8219 242.4164 15.24585487   934
2024-173G               
1 61233U 24173G   24274.60537808  .00048607  00000+0  19485-2 0  9991
2 61233  97.4044 347.3514 0011238 255.0651 242.3110 15.24795514   939
2024-173H               
1 61234U 24173H   24274.60506750  .00053438  00000+0  21363-2 0  9990
2 61234  97.4061 347.3521 0011205 254.5700 241.9438 15.24862138   935
2024-173J               
1 61235U 24173J   24270.13270088  .00606797  00000+0  25405-1 0  9999
2 61235  97.4648 342.8508 0028308 324.3976  99.5552 15.20891751   231
2024-173K               
1 61236U 24173K   24274.63952669  .00046779  00000+0  17866-2 0  9992
2 61236  97.4425 347.4411 0020491 276.0489  83.8415 15.26284352  1005
2024-173L               
1 61237U 24173L   24274.59839803  .00037390  00000+0  94351-3 0  9996
2 61237  97.6798 347.7650 0087203 291.9526  67.2466 15.35847228  1033
2024-174A               
1 61238U 24174A   24274.56787496  .00013217  00000+0  68158-3 0  9993
2 61238  97.4564 279.7638 0013474 269.1180  90.8509 15.16401618   852
2024-174B               
1 61239U 24174B   24274.56824881  .00016172  00000+0  83490-3 0  9993
2 61239  97.4556 279.7627 0013813 265.7402  94.2253 15.16312806   841
2024-174C               
1 61240U 24174C   24274.56966633  .00012518  00000+0  65482-3 0  9998
2 61240  97.4506 279.7580 0013271 259.6265 100.3472 15.15912021   816
2024-174D               
1 61241U 24174D   24274.56889126  .00016056  00000+0  83318-3 0  9999
2 61241  97.4529 279.7603 0013457 262.7089  97.2615 15.16137225   812
2024-174E               
1 61242U 24174E   24274.56861610  .00013095  00000+0  67905-3 0  9992
2 61242  97.4572 279.7633 0014498 263.1930  96.7653 15.16195838   809
2024-174F               
1 61263U 24174F   24271.21502814  .00188569  11007-4  13548-2 0  9998
2 61263  97.4373 276.5913 0188193  23.3247 337.6400 15.53428807   306
2024-174G               
1 61443U 24174G   24274.55920817  .00427267  50810-4  28402-2 0  9996
2 61443  97.4334 280.0700 0176240  11.2485 349.2628 15.57038045   639
SHIJIAN-19 (SJ-19)      
1 61444U 24177A   24274.72084914  .00097603  00000+0  54346-3 0  9993
2 61444  41.6062 139.1144 0007951 320.0538 101.0508 15.78332519   522
CZ-2D R/B               
1 61445U 24177B   24273.70990207  .00201699  00000+0  10276-2 0  9997
2 61445  41.3951 145.3231 0020158 274.3567 146.3888 15.79715660   368
CREW DRAGON 9           
1 61447U 24178A   24274.50455490  .00031827  00000+0  56373-3 0  9992
2 61447  51.6367 153.7358 0007188  46.4178 313.7407 15.49960791474885
NOAA 1                  
1 04793U 70106A   24274.38697134 -.00000023  00000+0  12582-3 0  9993
2 04793 101.4347 322.8810 0031960 130.9398 239.8789 12.54033139462370
NOAA 2 (ITOS-D)         
1 06235U 72082A   24274.39601632 -.00000008  00000+0  24255-3 0  9993
2 06235 102.0225 274.6014 0003759 283.4682 213.2999 12.53187119376684
NOAA 3                  
1 06920U 73086A   24274.39256749 -.00000012  00000+0  25268-3 0  9994
2 06920 102.2844 271.3208 0006300 191.1225 305.5060 12.40372228304437
NOAA 4                  
1 07529U 74089A   24274.52730775 -.00000012  00000+0  21429-3 0  9990
2 07529 101.9969 269.7870 0008786 309.6378 163.7219 12.53184920281278
NOAA 5                  
1 09057U 76077A   24274.51810959 -.00000019  00000+0  20320-3 0  9995
2 09057 102.2220 247.8054 0010142  42.9951  67.3400 12.37806255177183
